[{"OBJECT_NAME":"STARLINK-3107","OBJECT_ID":"2021-082AT","EPOCH":"2026-03-09T21:59:27.140640","MEAN_MOTION":15.10504087,"ECCENTRICITY":0.00073375,"INCLINATION":69.9932,"RA_OF_ASC_NODE":287.3824,"ARG_OF_PERICENTER":250.2407,"MEAN_ANOMALY":109.7967,"EPHEMERIS_TYPE":0,"CLASSIFICATION_TYPE":"U","NORAD_CAT_ID":49171,"ELEMENT_SET_NO":999,"REV_AT_EPOCH":24733,"BSTAR":0.001517345,"MEAN_MOTION_DOT":0.00025048,"MEAN_MOTION_DDOT":0},{"OBJECT_NAME":"STARLINK-3820","OBJECT_ID":"2022-045AK","EPOCH":"2026-03-09T15:19:10.956000","MEAN_MOTION":15.08834235,"ECCENTRICITY":0.000123,"INCLINATION":53.2173,"RA_OF_ASC_NODE":189.2632,"ARG_OF_PERICENTER":77.393,"MEAN_ANOMALY":282.7199,"EPHEMERIS_TYPE":0,"CLASSIFICATION_TYPE":"U","NORAD_CAT_ID":52364,"ELEMENT_SET_NO":999,"REV_AT_EPOCH":21591,"BSTAR":-2.5602e-5,"MEAN_MOTION_DOT":-6.95e-6,"MEAN_MOTION_DDOT":0}]
